COSMOS 2433 (720)       
1 32275U 07052A   26169.32339645 -.00000055  00000+0  00000+0 0  9991
2 32275  65.5762 315.8954 0002576 193.7419 166.2393  2.13103991145088
COSMOS 2432 (719)       
1 32276U 07052B   26173.62017409 -.00000075  00000+0  00000+0 0  9993
2 32276  65.5899 315.8780 0007488 330.0446  30.1529  2.13103050145200
COSMOS 2434 (721)       
1 32393U 07065A   26173.45975788  .00000088  00000+0  00000+0 0  9994
2 32393  64.3184 191.7381 0001214 331.3040 211.7809  2.13101245143881
COSMOS 2436 (723)       
1 32395U 07065C   26173.14632410  .00000084  00000+0  00000+0 0  9990
2 32395  64.3269 191.8207 0017276 353.7327  81.1911  2.13100062143830
COSMOS 2456 (730)       
1 36111U 09070A   26173.20908801 -.00000062  00000+0  00000+0 0  9992
2 36111  65.0142  70.8005 0004447 334.7501 174.2004  2.13103557128538
COSMOS 2457 (733)       
1 36112U 09070B   26170.28409466 -.00000033  00000+0  00000+0 0  9999
2 36112  64.9980  70.7445 0002927 121.9797  70.3947  2.13101026128472
COSMOS 2460 (732)       
1 36402U 10007C   26172.37328227 -.00000068  00000+0  00000+0 0  9998
2 36402  65.4181 314.3249 0002093 116.2871 240.7896  2.13101449126817
COSMOS 2476 (744)       
1 37867U 11064A   26173.36699142 -.00000061  00000+0  00000+0 0  9998
2 37867  65.2731  72.6963 0022606 238.5611 299.8582  2.13103651113877
COSMOS 2477 (745)       
1 37868U 11064B   26171.26952727 -.00000039  00000+0  00000+0 0  9992
2 37868  65.2782  72.8466 0019648 240.0065 309.6331  2.13102843113826
COSMOS 2475 (743)       
1 37869U 11064C   26173.16843976 -.00000059  00000+0  00000+0 0  9991
2 37869  65.2860  72.8040 0025357 252.9745 268.5458  2.13101679113877
COSMOS 2485 (747)       
1 39155U 13019A   26173.07185831 -.00000057  00000+0  00000+0 0  9990
2 39155  65.4224  73.4404 0022976 233.5948 126.2265  2.13103126102387
COSMOS 2492 (754)       
1 39620U 14012A   26173.49999056 -.00000075  00000+0  00000+0 0  9999
2 39620  65.2939 313.7548 0010217 323.4327  36.4899  2.13103084 95355
COSMOS 2500 (755)       
1 40001U 14032A   26172.26192068 -.00000067  00000+0  00000+0 0  9999
2 40001  65.2298 313.5443 0007491 184.9913 174.9944  2.13105734 93543
COSMOS 2501 (702K)      
1 40315U 14075A   26172.05477182  .00000072  00000+0  00000+0 0  9999
2 40315  63.6166 190.2381 0022627 212.5574 147.3441  2.13101228 89935
COSMOS 2514 (751)       
1 41330U 16008A   26172.97776890 -.00000072  00000+0  00000+0 0  9995
2 41330  65.0184 312.8421 0011494 198.5260 161.4255  2.13102642 80720
COSMOS 2522 (752)       
1 42939U 17055A   26172.81553235  .00000080  00000+0  00000+0 0  9991
2 42939  64.0791 191.7269 0010902 240.6305 119.3054  2.13101990 68073
COSMOS 2527 (756)       
1 43508U 18053A   26170.90026155 -.00000034  00000+0  00000+0 0  9997
2 43508  65.5791  73.8170 0006906 238.7549 121.2143  2.13102048 62339
COSMOS 2529 (757)       
1 43687U 18086A   26173.34300421  .00000086  00000+0  00000+0 0  9999
2 43687  64.2950 192.4203 0012081 256.4451 103.4674  2.13101935 59392
COSMOS 2534 (758)       
1 44299U 19030A   26173.18309679  .00000084  00000+0  00000+0 0  9993
2 44299  64.3690 192.4481 0013450 275.1082  96.7066  2.13102276 55036
COSMOS 2544 (759)       
1 44850U 19088A   26173.66049595 -.00000062  00000+0  00000+0 0  9997
2 44850  65.5686  73.5480 0012911 258.0838 101.8040  2.13102846 50831
COSMOS 2545 (760)       
1 45358U 20018A   26173.38622922 -.00000076  00000+0  00000+0 0  9991
2 45358  64.3519 312.2361 0008556 229.6925 130.2259  2.13102349 48775
COSMOS 2547 (705K)      
1 46805U 20075A   26173.10653786  .00000083  00000+0  00000+0 0  9991
2 46805  64.5997 192.3113 0009357 239.8177 120.1360  2.13100042 44011
COSMOS 2557 (706K)      
1 52984U 22075A   26173.27080705 -.00000076  00000+0  00000+0 0  9994
2 52984  64.2952 314.3058 0010303 273.7574  86.1177  2.13102021 30829
COSMOS 2559 (707K)      
1 54031U 22130A   26169.33634979 -.00000058  00000+0  00000+0 0  9991
2 54031  64.2705 314.5280 0012585 178.2040 181.7898  2.13101593 28710
COSMOS 2564 (761)       
1 54377U 22161A   26171.05664634  .00000061  00000+0  00000+0 0  9994
2 54377  64.7420 192.6165 0012215 224.8634 135.0824  2.13102033 27693
COSMOS 2569 (703K)      
1 57517U 23114A   26172.94601313 -.00000057  00000+0  00000+0 0  9992
2 57517  65.3047  72.4599 0010483 296.8456  63.0820  2.13103733 22369
COSMOS 2584 (704K)      
1 63130U 25042A   26170.95584270 -.00000037  00000+0  00000+0 0  9991
2 63130  65.0856  72.7078 0005135 219.8892 140.1108  2.13103910 10106
COSMOS 2596 (708K)      
1 65590U 25206B   26173.62071910 -.00000077  00000+0  00000+0 0  9998
2 65590  64.6312 314.7956 0010987 310.7969  49.9010  2.13100866  6033
